STARLINK-6196           
1 56487U 23064AR  26068.47184357  .00002863  00000+0  24761-3 0  9997
2 56487  70.0005 104.8614 0003641 271.9465  88.1277 14.98333961156200
HAWK-8A                 
1 59443U 24066B   26068.40724718  .00002325  00000+0  20899-3 0  9990
2 59443  45.5937  72.3645 0004214 254.4969 105.5447 14.98766556104869
